CUTE-1 (CO-55)          
1 27844U 03031E   19138.48599457  .00000048  00000-0  41323-4 0  9994
2 27844  98.6846 147.1653 0010963 118.3523 241.8762 14.22176393823851
CUBESAT XI-IV (CO-57)   
1 27848U 03031J   19137.48400254  .00000046  00000-0  40646-4 0  9998
2 27848  98.6925 146.6712 0010672 131.1958 229.0141 14.21771428823561
CUBESAT XI-V            
1 28895U 05043F   19137.17289397  .00000154  00000-0  38388-4 0  9995
2 28895  97.9542 281.0279 0018276  94.5275 265.8016 14.63659910722738
CUTE-1.7+APD II (CO-65) 
1 32785U 08021C   19137.48129099  .00000313  00000-0  39370-4 0  9992
2 32785  97.5495 138.7157 0013487  16.8104 343.3558 14.88297094598893
AAUSAT-II               
1 32788U 08021F   19138.18580340  .00000791  00000-0  77862-4 0  9991
2 32788  97.4984 155.3092 0010409 311.0620  48.9701 14.94697246600213
DELFI-C3 (DO-64)        
1 32789U 08021G   19136.68237060  .00001901  00000-0  13131-3 0  9995
2 32789  97.4672 187.3402 0010949 232.8691 127.1538 15.06881498601896
SEEDS II (CO-66)        
1 32791U 08021J   19137.48675316  .00000488  00000-0  54879-4 0  9991
2 32791  97.5286 144.6601 0013064 352.6490   7.4535 14.90801375599315
SWISSCUBE               
1 35932U 09051B   19137.44141094  .00000169  00000-0  49161-4 0  9996
2 35932  98.5848 302.4764 0006380 262.9664  97.0807 14.56275256512084
BEESAT-1                
1 35933U 09051C   19138.13341641  .00000116  00000-0  37280-4 0  9995
2 35933  98.5877 304.9315 0004575 276.5348  83.5328 14.56365750512290
ITUPSAT1                
1 35935U 09051E   19137.14174899  .00000122  00000-0  39117-4 0  9994
2 35935  98.5987 304.1509 0006895 276.2329  83.8082 14.55526836511904
TISAT 1                 
1 36799U 10035E   19136.86747130  .00000271  00000-0  33452-4 0  9990
2 36799  98.1514 287.9402 0012143 187.0757 173.0291 14.91080775479670
M-CUBED & EXP-1 PRIME   
1 37855U 11061F   19137.69648403  .00001061  00000-0  60993-4 0  9997
2 37855 101.7189  16.8691 0173754 171.6134 188.8049 15.05342619411963
STRAND-1                
1 39090U 13009E   19137.15607393  .00000042  00000-0  29880-4 0  9996
2 39090  98.4917 343.6558 0009821  32.3435 327.8351 14.35083115325724
SOMP                    
1 39134U 13015E   19137.84705283  .00001365  00000-0  71796-4 0  9997
2 39134  64.8619 123.6020 0028097 309.1117  50.7512 15.20080507335759
BEESAT-3                
1 39135U 13015F   19137.38326559  .00001454  00000-0  82047-4 0  9992
2 39135  64.8654 142.9524 0016290 324.3086  35.6950 15.17396718335341
BEESAT-2                
1 39136U 13015G   19137.40819338  .00001157  00000-0  68349-4 0  9997
2 39136  64.8679 146.5958 0017089 309.1331  50.8275 15.16837336335277
NEE-01 PEGASO           
1 39151U 13018B   19138.24166128  .00000142  00000-0  25716-4 0  9996
2 39151  97.9699 234.8959 0015823 306.5538  53.4216 14.80035375327075
ESTCUBE 1               
1 39161U 13021C   19138.18625564  .00000170  00000-0  34822-4 0  9997
2 39161  97.9882 223.6133 0010981  69.8636 290.3780 14.72192674323732
POPACS 1                
1 39268U 13055D   19138.04347782  .00002224  00000-0  61939-4 0  9991
2 39268  81.0031 354.3942 0626720 317.4972  37.9255 14.36770863292491
POPACS 2                
1 39269U 13055E   19138.10938399  .00003043  00000-0  86613-4 0  9995
2 39269  81.0174  23.3608 0685627  32.5082 331.6446 14.23772901290776
POPACS 3                
1 39270U 13055F   19137.16593249  .00002455  00000-0  74950-4 0  9990
2 39270  81.0199  40.6918 0715653  82.7456 285.4439 14.15729446289599
ZACUBE-1 (TSHEPISOSAT)  
1 39417U 13066B   19137.47962809  .00000277  00000-0  41049-4 0  9994
2 39417  97.5641 152.7898 0060069 138.4958 222.0840 14.81100608296270
WNISAT-1                
1 39423U 13066H   19138.23255415  .00000163  00000-0  41698-4 0  9998
2 39423  97.7741  82.3484 0176467  51.6097 310.0822 14.53036976290883
TRITON-1                
1 39427U 13066M   19137.48390864  .00000190  00000-0  38586-4 0  9998
2 39427  97.6739 116.8565 0112264 268.6429  90.1914 14.67826481293615
GOMX-1                  
1 39430U 13066Q   19138.08066309  .00000382  00000-0  78164-4 0  9992
2 39430  97.7436  96.7191 0151696 354.5071   5.4460 14.59240422291995
CUBEBUG-2 (LO-74)       
1 39440U 13066AA  19137.88539405  .00000206  00000-0  35630-4 0  9998
2 39440  97.6019 138.2021 0080060 187.1957 172.8111 14.75839525295289
NEE-02 KRYSAOR          
1 39441U 13066AB  19137.50119547  .00000128  00000-0  25327-4 0  9994
2 39441  97.6057 135.6580 0081334 195.2653 164.6102 14.74896316295055
FUNCUBE-1 (AO-73)       
1 39444U 13066AE  19137.49795380  .00000319  00000-0  45422-4 0  9990
2 39444  97.5623 154.7206 0059321 132.5375 228.0870 14.81915839295168
UWE-3                   
1 39446U 13066AG  19136.99650396  .00000209  00000-0  34316-4 0  9991
2 39446  97.5818 144.3481 0070432 165.4962 194.8294 14.78373173294433
BRITE-CA1 (TORONTO)     
1 40020U 14033L   19138.15657886  .00000082  00000-0  22542-4 0  9994
2 40020  97.7502 343.7345 0086030 256.9782 102.1808 14.66569865262672
DUCHIFAT-1              
1 40021U 14033M   19137.72554899  .00000462  00000-0  53016-4 0  9999
2 40021  97.9240  62.2145 0013488 149.4555 210.7451 14.90603694266788
NANOSATC-BR1            
1 40024U 14033Q   19137.46687475  .00000471  00000-0  54976-4 0  9996
2 40024  97.9141  59.4589 0012689 153.4206 206.7665 14.89821370266649
QB50P1                  
1 40025U 14033R   19137.30815908  .00000343  00000-0  42452-4 0  9998
2 40025  97.9068  57.0437 0012794 159.5196 200.6536 14.88924632266505
QB50P2                  
1 40032U 14033Y   19137.97191838  .00000256  00000-0  33628-4 0  9996
2 40032  97.8996  55.9201 0012364 153.4663 206.7189 14.88461049266524
PERSEUS-M2              
1 40037U 14033AD  19138.18946684  .00000073  00000-0  14470-4 0  9993
2 40037  97.8931  52.4999 0014655 165.9497 194.2129 14.86451334266295
PERSEUS-M1              
1 40039U 14033AF  19137.35718050  .00000112  00000-0  18997-4 0  9999
2 40039  97.8916  50.8035 0014500 165.9626 194.1995 14.86071636266109
POLYITAN-1              
1 40042U 14033AJ  19137.83630662  .00000297  00000-0  37836-4 0  9995
2 40042  97.9146  57.8628 0015250 148.9249 211.2873 14.88636600266497
TIGRISAT                
1 40043U 14033AK  19137.18188408  .00000173  00000-0  32965-4 0  9991
2 40043  97.7623   6.3992 0059361 200.5070 159.3756 14.74257982263819
AEROCUBE 6A             
1 40045U 14033AM  19137.21530293  .00000334  00000-0  55360-4 0  9993
2 40045  97.7840  10.0589 0057237 193.2343 166.7369 14.75367663263773
AEROCUBE 6B             
1 40046U 14033AN  19137.42353127  .00000327  00000-0  54414-4 0  9997
2 40046  97.7779   9.9128 0056615 191.8638 168.1242 14.75348557263947
UKUBE-1                 
1 40074U 14037F   19138.07564776  .00000410  00000-0  56437-4 0  9998
2 40074  98.4339 298.2466 0003990 341.4449  18.6615 14.84032794262964
BRITE-PL2 (HEWELIUSZ)   
1 40119U 14049B   19137.49919101  .00000139  00000-0  23050-4 0  9995
2 40119  97.9035 228.4233 0016623 330.4035  29.6237 14.84397206256893
FIREBIRD 4              
1 40378U 15003C   19138.17913683  .00001339  00000-0  56799-4 0  9997
2 40378  99.1116 112.0516 0127301 194.8628 164.8846 15.18664433237144
GRIFEX                  
1 40379U 15003D   19137.90331430  .00000930  00000-0  44071-4 0  9998
2 40379  99.1104 105.9823 0134864 213.7852 145.4728 15.15390926236778
EXOCUBE (CP10)          
1 40380U 15003E   19136.85336967  .00000976  00000-0  48080-4 0  9997
2 40380  99.1124 101.5875 0139523 227.8506 131.0799 15.13426797236403
TIANWANG 1C (TW-1C)     
1 40926U 15051B   19138.11542089  .00016693  00000-0  24856-3 0  9998
2 40926  97.1394 184.3392 0009743 122.5606 263.3866 15.55136013205259
TIANWANG 1A (TW-1A)     
1 40928U 15051D   19138.24846757  .00004783  00000-0  11935-3 0  9994
2 40928  97.1481 170.2471 0010681 179.0751 246.0922 15.40604080204338
EXACTVIEW 9             
1 40936U 15052G   19136.99190261  .00000802  00000-0  23194-4 0  9995
2 40936   6.0039 294.2249 0010168  37.1923 322.8908 14.76480748196383
ATHENOXAT 1             
1 41168U 15077C   19138.07486646  .00002049  00000-0  73589-4 0  9994
2 41168  14.9881  87.7660 0011495  14.1402 345.9239 15.13571474189189
GALASSIA                
1 41170U 15077E   19137.15258119  .00002374  00000-0  90023-4 0  9990
2 41170  14.9887  87.7977 0012840  24.9032 335.1907 15.13904276189107
VELOX-II                
1 41171U 15077F   19138.08229333  .00001472  00000-0  46496-4 0  9993
2 41171  14.9907 112.6900 0008868 316.9973  42.9655 15.11174038188967
HORYU-4                 
1 41340U 16012D   19137.85657872  .00000540  00000-0  34278-4 0  9998
2 41340  31.0057 336.9336 0014056 174.0997 185.9806 15.01247208178223
E-ST@R-II               
1 41459U 16025D   19138.09973588  .00003256  00000-0  16829-3 0  9993
2 41459  98.1017 223.0227 0169701 104.6287 257.3816 15.05385047167791
AAUSAT 4                
1 41460U 16025E   19138.18088668  .00004744  00000-0  23918-3 0  9991
2 41460  98.0967 224.2693 0159174  97.2168 264.7244 15.07233592167925
DIWATA-1                
1 41463U 98067HT  19138.15761931  .00025781  00000-0  13587-3 0  9993
2 41463  51.6330  50.6032 0002513  90.4472  53.2417 15.80492106174786
BEESAT-4                
1 41619U 16040W   19138.24255290  .00001359  00000-0  60579-4 0  9992
2 41619  97.3697 201.0492 0012824 129.2045 231.0333 15.23043616149079
CANX-7                  
1 41788U 16059F   19138.15177600  .00008520  00000-0  13016-2 0  9996
2 41788  98.2356 213.0369 0032929 114.0052 246.4224 14.73680694141362
RAVAN                   
1 41849U 16067B   19137.26710792  .00000610  00000-0  56547-4 0  9999
2 41849  97.9173 235.9150 0009428 127.4970 232.7110 14.98189991137143
CELTEE 1                
1 41850U 16067C   19138.19013938 -.00000096  00000-0 -30444-5 0  9991
2 41850  97.9146 235.6223 0009780 124.2615 235.9534 14.96993245137211
